0 GSTAR 2
1 16649U 86026A   13281.48850722  .00000047  00000-0  10000-3 0  1053
2 16649 014.0410 029.3980 0003248 047.2549 312.7729 00.99800061 70435
0 GSTAR 2
1 16649U 86026A   13283.49242208  .00000025  00000-0  10000-3 0  1067
2 16649 014.0436 029.3750 0003254 047.4548 312.5736 00.99800869 70450
0 GSTAR 2
1 16649U 86026A   13283.49243668  .00000000  00000-0  10000-3 0  1072
2 16649 014.0446 029.3747 0002284 045.8425 314.1809 00.99796930 70457
0 GSTAR 2
1 16649U 86026A   13285.49631725  .00000001  00000-0  10000-3 0  1070
2 16649 014.0464 029.3521 0003147 048.2895 311.7368 00.99801633 70476
0 GSTAR 2
1 16649U 86026A   13287.50017930 -.00000023  00000-0  10000-3 0  1086
2 16649 014.0490 029.3291 0003203 048.8479 311.1712 00.99802346 70497
0 GSTAR 2
1 16649U 86026A   13288.50209856 -.00000035  00000-0  10000-3 0  1091
2 16649 014.0500 029.3160 0003522 049.5728 310.4475 00.99802742 70503
0 GSTAR 2
1 16649U 86026A   13290.50591900 -.00000060  00000-0  10000-3 0  1108
2 16649 014.0526 029.2934 0003514 050.2450 309.7584 00.99803328 70526
0 GSTAR 2
1 16649U 86026A   13290.50593008  .00000000  00000-0  10000-3 0  1113
2 16649 014.0545 029.2948 0002050 040.6791 319.3140 00.99799540 70522
0 GSTAR 2
1 16649U 86026A   13291.50785450 -.00000072  00000-0  10000-3 0  1118
2 16649 014.0543 029.2830 0003232 049.8439 310.1543 00.99803531 70536
0 GSTAR 2
1 16649U 86026A   13293.51169835 -.00000096  00000-0  10000-3 0  1121
2 16649 014.0571 029.2597 0003395 049.8057 310.1938 00.99804036 70554
